{
    "links": {
        "self": "http://www.neowsapp.com/rest/v1/neo/3759770?api_key=iIulBulltgU6a56xZRHN4H3l9WmuAYTsLGpBGhQ2"
    },
    "id": "3759770",
    "neo_reference_id": "3759770",
    "name": "(2016 SO3)",
    "designation": "2016 SO3",
    "nasa_jpl_url": "http://ssd.jpl.nasa.gov/sbdb.cgi?sstr=3759770",
    "absolute_magnitude_h": 22.3,
    "estimated_diameter": {
        "kilometers": {
            "estimated_diameter_min": 0.0921626549,
            "estimated_diameter_max": 0.2060819612
        },
        "meters": {
            "estimated_diameter_min": 92.1626548503,
            "estimated_diameter_max": 206.0819612321
        },
        "miles": {
            "estimated_diameter_min": 0.057267201,
            "estimated_diameter_max": 0.1280533543
        },
        "feet": {
            "estimated_diameter_min": 302.370924539,
            "estimated_diameter_max": 676.1219416887
        }
    },
    "is_potentially_hazardous_asteroid": false,
    "close_approach_data": [
        {
            "close_approach_date": "1969-09-26",
            "close_approach_date_full": "1969-Sep-26 21:29",
            "epoch_date_close_approach": -8303460000,
            "relative_velocity": {
                "kilometers_per_second": "4.0686292155",
                "kilometers_per_hour": "14647.0651759301",
                "miles_per_hour": "9101.1166922328"
            },
            "miss_distance": {
                "astronomical": "0.1907404475",
                "lunar": "74.1980340775",
                "kilometers": "28534364.668846825",
                "miles": "17730432.034163185"
            },
            "orbiting_body": "Earth"
        },
        {
            "close_approach_date": "2016-09-26",
            "close_approach_date_full": "2016-Sep-26 17:33",
            "epoch_date_close_approach": 1474911180000,
            "relative_velocity": {
                "kilometers_per_second": "5.665363381",
                "kilometers_per_hour": "20395.3081717614",
                "miles_per_hour": "12672.8513470592"
            },
            "miss_distance": {
                "astronomical": "0.2555623729",
                "lunar": "99.4137630581",
                "kilometers": "38231586.637985723",
                "miles": "23756006.3561920574"
            },
            "orbiting_body": "Earth"
        },
        {
            "close_approach_date": "2038-09-28",
            "close_approach_date_full": "2038-Sep-28 23:57",
            "epoch_date_close_approach": 2169331020000,
            "relative_velocity": {
                "kilometers_per_second": "4.4140097418",
                "kilometers_per_hour": "15890.4350703888",
                "miles_per_hour": "9873.6983913757"
            },
            "miss_distance": {
                "astronomical": "0.2378502191",
                "lunar": "92.5237352299",
                "kilometers": "35581886.156393317",
                "miles": "22109558.8237170946"
            },
            "orbiting_body": "Earth"
        },
        {
            "close_approach_date": "2085-09-27",
            "close_approach_date_full": "2085-Sep-27 23:21",
            "epoch_date_close_approach": 3652471260000,
            "relative_velocity": {
                "kilometers_per_second": "4.4553953759",
                "kilometers_per_hour": "16039.4233532809",
                "miles_per_hour": "9966.2739163761"
            },
            "miss_distance": {
                "astronomical": "0.1978744557",
                "lunar": "76.9731632673",
                "kilometers": "29601597.100129359",
                "miles": "18393579.5164047942"
            },
            "orbiting_body": "Earth"
        }
    ],
    "orbital_data": {
        "orbit_id": "9",
        "orbit_determination_date": "2017-04-06 08:23:35",
        "first_observation_date": "2016-09-25",
        "last_observation_date": "2016-11-23",
        "data_arc_in_days": 59,
        "observations_used": 46,
        "orbit_uncertainty": "6",
        "minimum_orbit_intersection": ".191032",
        "jupiter_tisserand_invariant": "3.570",
        "epoch_osculation": "2459000.5",
        "eccentricity": ".4479883493957089",
        "semi_major_axis": "2.143022218923443",
        "inclination": "5.393583135272626",
        "ascending_node_longitude": "219.7475554128057",
        "orbital_period": "1145.878148438916",
        "perihelion_distance": "1.1829732323496",
        "perihelion_argument": "142.7771550529446",
        "aphelion_distance": "3.103071205497285",
        "perihelion_time": "2458811.764640881145",
        "mean_anomaly": "59.29489917872333",
        "mean_motion": ".3141695305826759",
        "equinox": "J2000",
        "orbit_class": {
            "orbit_class_type": "AMO",
            "orbit_class_description": "Near-Earth asteroid orbits similar to that of 1221 Amor",
            "orbit_class_range": "1.017 AU < q (perihelion) < 1.3 AU"
        }
    },
    "is_sentry_object": false
}